0 COSMOS 1823 DEB
1 29356U 87020DX  13283.32891261 -.00000014  00000-0  23721-4 0  7354
2 29356 073.6585 157.9083 0034864 306.2209 053.5621 12.44332428509314
0 COSMOS 1823 DEB
1 29356U 87020DX  13286.30335082 -.00000014  00000-0  23721-4 0  7360
2 29356 073.6585 153.9100 0034864 301.9218 057.8439 12.44332448509688
0 COSMOS 1823 DEB
1 29356U 87020DX  13288.95622855 -.00000014  00000-0  23721-4 0  7371
2 29356 073.6601 150.3393 0035918 297.5406 062.2394 12.44333447510011
0 COSMOS 1823 DEB
1 29356U 87020DX  13291.93065637 -.00000014  00000-0  23721-4 0  7383
2 29356 073.6617 146.3362 0037045 292.8641 066.8833 12.44334240510381
0 COSMOS 1823 DEB
1 29356U 87020DX  13294.26196305 -.00000014  00000-0  23721-4 0  7390
2 29356 073.6578 143.1996 0035590 290.2176 069.5154 12.44334755510672
